{"type":"FeatureCollection","name":"idrogeo_epsg7792","features":[{"type":"Feature","properties":{"id":1,"fid_":0,"entity":"2DPolyline","layer":"Vincolo Idrogeologico","color":130,"linetype":"Continuous","elevation":0,"linewt":0,"refname":null},"geometry":{"type":"MultiPolygon","coordinates":[[[[14.65039475,41.10087175],[14.65045958,41.10092543],[14.65047622,41.10096335],[14.650588,41.10105738],[14.65079679,41.10110167],[14.65087391,41.10110027],[14.6510073,41.10116892],[14.65111411,41.10130289],[14.651208,41.10145988],[14.6513213,41.10166693],[14.65136961,41.10165627],[14.65141764,41.10169964],[14.65144426,41.10173485],[14.65151373,41.10177964],[14.65159401,41.10180825],[14.65173862,41.10183841],[14.65197235,41.10191477],[14.65211496,41.10198681],[14.65233265,41.10197053],[14.65264287,41.10197691],[14.65276922,41.10195957],[14.65318411,41.10195537],[14.65351276,41.10188682],[14.65368597,41.10187916],[14.65373389,41.10180554],[14.65384026,41.10173694],[14.65395715,41.10161495],[14.6541557,41.10157247],[14.65430464,41.10164356],[14.65449469,41.10170013],[14.65485617,41.10188558],[14.6549207,41.10196935],[14.65560057,41.10190288],[14.65572165,41.10191733],[14.65624793,41.10178788],[14.65628239,41.10161328],[14.65629855,41.10137383],[14.6566139,41.10130573],[14.65694197,41.10129967],[14.6571162,41.1010953],[14.65740745,41.10086138],[14.65751047,41.10084047],[14.65773623,41.10096702],[14.65793615,41.10102278],[14.65803648,41.10116169],[14.65826601,41.1011876],[14.6587284,41.10128359],[14.65885001,41.10128663],[14.65910843,41.1013222],[14.65935042,41.10133898],[14.65947442,41.10133578],[14.65969434,41.10128109],[14.66005277,41.10133785],[14.66047093,41.10134633],[14.66107102,41.10172082],[14.66113522,41.10189973],[14.66130757,41.1020941],[14.66260937,41.10373106],[14.66258203,41.1040212],[14.66264551,41.10466046],[14.66296732,41.1053123],[14.6631908,41.10563871],[14.66326385,41.10581882],[14.66334493,41.10631742],[14.66339142,41.10640934],[14.66351927,41.10689005],[14.66382292,41.10710884],[14.66399297,41.10768929],[14.66405855,41.10780198],[14.66408696,41.10790832],[14.66430461,41.10813358],[14.66443102,41.10831958],[14.6645163,41.10876307],[14.66456404,41.10910608],[14.66473867,41.1093837],[14.66475468,41.10951263],[14.66488084,41.10976617],[14.6651075,41.1104613],[14.66536904,41.1111478],[14.66530991,41.11134484],[14.66538682,41.11148357],[14.66541201,41.11161889],[14.66548926,41.11169081],[14.66562708,41.1117238],[14.66582367,41.11164615],[14.66591026,41.1117104],[14.66588935,41.1119764],[14.66677941,41.11239433],[14.66693251,41.11233569],[14.66711768,41.11226103],[14.66732487,41.11228423],[14.66766201,41.11217106],[14.66778235,41.11213997],[14.66821486,41.11207658],[14.66845053,41.11208949],[14.66876471,41.11211834],[14.66912262,41.11218225],[14.66951554,41.11217814],[14.66985725,41.11224724],[14.67006962,41.11230025],[14.67018701,41.1123949],[14.67047061,41.11245764],[14.67059365,41.11254582],[14.67071247,41.11260875],[14.67093788,41.1127833],[14.67103505,41.11286834],[14.67108147,41.112907],[14.67127061,41.11295047],[14.6713609,41.11295403],[14.67142754,41.11302688],[14.67157142,41.11307469],[14.67183067,41.1132156],[14.67210449,41.11335424],[14.67217029,41.11343974],[14.67219985,41.11354903],[14.67231678,41.11364491],[14.67243543,41.11369644],[14.67252725,41.11369556],[14.6727418,41.11375289],[14.67298174,41.11383919],[14.67360526,41.11400701],[14.67469686,41.11432385],[14.67496599,41.1144203],[14.67519346,41.11449675],[14.67547457,41.1146253],[14.67579123,41.11489082],[14.67583346,41.1150712],[14.6759808,41.11534586],[14.67593448,41.11554126],[14.67591802,41.11559068],[14.6759761,41.11569827],[14.67604898,41.1157112],[14.67621876,41.11554394],[14.67670182,41.11552751],[14.67765214,41.11567002],[14.67754968,41.11545309],[14.67751821,41.11530838],[14.67751777,41.11505046],[14.67750385,41.11471108],[14.67748492,41.11440352],[14.67739039,41.11421486],[14.67725404,41.11387686],[14.67717666,41.1136808],[14.6771197,41.11349125],[14.67710688,41.11343487],[14.67709069,41.1132576],[14.67712891,41.11306602],[14.67717886,41.11281518],[14.67718575,41.11264619],[14.67711799,41.112502],[14.67702754,41.11232818],[14.67699465,41.11216213],[14.67681034,41.11202575],[14.67663254,41.11192666],[14.6763469,41.11187246],[14.67604747,41.11183352],[14.67522444,41.11163238],[14.67516438,41.11160204],[14.67499417,41.11144757],[14.67486234,41.11124735],[14.67471201,41.11106601],[14.67445378,41.11077488],[14.67441112,41.11059978],[14.67411695,41.11021426],[14.67399248,41.11001345],[14.67389085,41.1097974],[14.67388462,41.10929816],[14.67392235,41.10906247],[14.67393394,41.10882964],[14.67391556,41.10867371],[14.67390412,41.10852238],[14.67384914,41.10837751],[14.67384794,41.10822997],[14.67380499,41.10803059],[14.67383673,41.10760675],[14.6737824,41.10726401],[14.6738443,41.10696802],[14.6738589,41.10678545],[14.67382856,41.10662912],[14.67372339,41.10648741],[14.67371072,41.10630998],[14.67383042,41.1060873],[14.67386324,41.10571515],[14.67408326,41.10517128],[14.67408243,41.10484584],[14.6741848,41.10433335],[14.67397438,41.10404761],[14.67378507,41.10382535],[14.67361453,41.10370846],[14.67252026,41.10301086],[14.67207388,41.10254976],[14.67195706,41.10223946],[14.67212471,41.10125282],[14.67213225,41.10066749],[14.6720637,41.10034492],[14.672145,41.099978],[14.67216233,41.09973095],[14.67221513,41.09944345],[14.67219272,41.09834147],[14.67196683,41.09790584],[14.67145556,41.09743457],[14.67126731,41.09691705],[14.67116185,41.09654119],[14.67097051,41.09613433],[14.67064833,41.09565041],[14.67034175,41.09519382],[14.67000061,41.09483851],[14.66940233,41.09388014],[14.66921389,41.09373855],[14.66884338,41.09326496],[14.66854049,41.09280201],[14.668029,41.09243599],[14.66766652,41.0922492],[14.66676208,41.09207405],[14.66657165,41.09210762],[14.66619876,41.09204569],[14.66592366,41.09202618],[14.66554884,41.09212767],[14.66421052,41.09292231],[14.66354722,41.09319041],[14.66329492,41.09305076],[14.66244002,41.09289875],[14.66198594,41.09304798],[14.65999383,41.09352941],[14.66006434,41.09337973],[14.66028687,41.09312708],[14.66045822,41.092775],[14.66045051,41.09246044],[14.66045573,41.09212389],[14.66052444,41.09197508],[14.66049577,41.09175323],[14.66045283,41.0916003],[14.66034467,41.0914559],[14.660328,41.09122177],[14.6601953,41.09110795],[14.66009858,41.09094375],[14.6598771,41.09074899],[14.6595313,41.09059981],[14.65941756,41.09050552],[14.65913612,41.09034921],[14.65858438,41.09013725],[14.65830856,41.09027859],[14.65816915,41.09038549],[14.65806353,41.09048425],[14.65796039,41.09062946],[14.6578715,41.09066119],[14.65728071,41.09063023],[14.657148,41.09052938],[14.65702889,41.09049897],[14.65693096,41.09042272],[14.65678142,41.09039212],[14.6566728,41.09040967],[14.65614825,41.09034961],[14.65595452,41.09036698],[14.6558143,41.0904364],[14.65564468,41.09055923],[14.65552713,41.09055236],[14.65536531,41.09062249],[14.65523635,41.0906323],[14.65516087,41.09071297],[14.6551063,41.09083432],[14.65494339,41.09098697],[14.65481128,41.0912263],[14.65474762,41.09138565],[14.65467291,41.09152128],[14.65441878,41.09171919],[14.65427013,41.09177216],[14.65397984,41.09200264],[14.65348636,41.09206084],[14.65303153,41.09222506],[14.65290299,41.09224037],[14.6525037,41.09235626],[14.65190522,41.09246062],[14.65179346,41.09251719],[14.65167724,41.09261432],[14.65141495,41.09272523],[14.65116725,41.09279926],[14.65103713,41.09279694],[14.65080105,41.09284563],[14.65050312,41.09281612],[14.65011129,41.09292176],[14.65003446,41.09292086],[14.64985874,41.09299993],[14.64975969,41.093023],[14.64953792,41.09303835],[14.6494292,41.09305338],[14.6491695,41.09301842],[14.6490002,41.09305979],[14.64887127,41.09306026],[14.64857148,41.0929679],[14.64783977,41.0927549],[14.64768624,41.09272818],[14.647635,41.09273061],[14.647709,41.09283496],[14.64778641,41.09298841],[14.64777396,41.09313493],[14.6476539,41.09323594],[14.64745393,41.09328822],[14.64745063,41.09358452],[14.646167,41.09449675],[14.64582674,41.09493196],[14.64526753,41.0954259],[14.64478135,41.09589002],[14.6447003,41.09603423],[14.64428411,41.0966657],[14.6455107,41.09822893],[14.64435382,41.09875834],[14.64446409,41.09896379],[14.64451765,41.09915254],[14.64464523,41.09934741],[14.64470288,41.09950081],[14.64489314,41.09963989],[14.64493791,41.09990175],[14.64502276,41.09998945],[14.64502719,41.10006945],[14.6451833,41.10010221],[14.64542887,41.10010664],[14.64568772,41.09988427],[14.64601882,41.09968937],[14.64630386,41.09967749],[14.64653913,41.09959267],[14.64675311,41.09969808],[14.6471123,41.09971159],[14.64720556,41.09961732],[14.64729229,41.0996019],[14.64749623,41.09962218],[14.6476712,41.09966532],[14.64776674,41.09955357],[14.64794386,41.09951186],[14.64814092,41.09952918],[14.6484858,41.09953378],[14.64886514,41.09950242],[14.64905925,41.09949696],[14.64926877,41.09964382],[14.64940992,41.09981515],[14.64956745,41.09982538],[14.64968797,41.09974344],[14.6497762,41.09980063],[14.64986867,41.10003444],[14.6503977,41.1007485],[14.65039475,41.10087175]]]]}}]}